{"fetched_at":"2026-03-29T16:36:15Z","count":15609,"tles":[{"name":"STARLINK-35637","line1":"1 66130U 25237S   26087.91745419  .00019122  00000+0  65627-3 0  9991","line2":"2 66130  53.1586 310.3679 0001230  72.6199 287.4936 15.30191134 25559","category":"Starlink"}]}